NORAD_CAT_ID,OBJECT_NAME,OBJECT_TYPE,EPOCH,MEAN_MOTION,ECCENTRICITY,INCLINATION,RA_OF_ASC_NODE,ARG_OF_PERICENTER,MEAN_ANOMALY,BSTAR,MEAN_MOTION_DOT,MEAN_MOTION_DDOT,TLE_LINE0,TLE_LINE1,TLE_LINE2,SEMIMAJOR_AXIS,PERIOD,APOGEE,PERIGEE,DECAYED
52854.0,STARLINK-4204,PAYLOAD,2022-10-04 14:00:01,15.08859311,0.0002025,53.214,245.037,33.5509,74.9192,-0.0037354,-0.00059281,0.0,0 STARLINK-4204,1 52854U 22062AA  22277.58334491 -.00059281  00000-0 -37354-2 0  9994,2 52854  53.2140 245.0370 0002025  33.5509  74.9192 15.08859311  1303,6917.821,95.436,541.087,538.286,0.0
52854.0,STARLINK-4204,PAYLOAD,2022-10-04 22:00:00,15.08815744,0.0001882,53.214,243.5398,36.4809,83.5797,0.0021798,0.00034551,0.0,0 STARLINK-4204,1 52854U 22062AA  22277.91667824  .00034551  00000-0  21798-2 0  9996,2 52854  53.2140 243.5398 0001882  36.4809  83.5797 15.08815744  1300,6917.955,95.439,541.121,538.518,0.0
52854.0,STARLINK-4204,PAYLOAD,2022-10-05 08:00:01,15.08808585,0.0002093,53.214,241.6712,30.3901,194.1564,0.002013,0.00031867,0.0,0 STARLINK-4204,1 52854U 22062AA  22278.33334491  .00031867  00000-0  20130-2 0  9990,2 52854  53.2140 241.6712 0002093  30.3901 194.1564 15.08808585 17505,6917.976,95.44,541.289,538.393,0.0
52854.0,STARLINK-4204,PAYLOAD,2022-10-05 14:00:01,15.08848061,0.0001968,53.2138,240.5475,31.7165,111.5701,-0.001992,-0.00031859,0.0,0 STARLINK-4204,1 52854U 22062AA  22278.58335648 -.00031859  00000-0 -19920-2 0  9990,2 52854  53.2138 240.5475 0001968  31.7165 111.5701 15.08848061  1303,6917.856,95.437,541.082,538.359,0.0
52854.0,STARLINK-4204,PAYLOAD,2022-10-05 22:00:00,15.0882268,0.0001935,53.2141,239.0504,38.0618,116.7518,0.0012205999999999,0.00019182,0.0,0 STARLINK-4204,1 52854U 22062AA  22278.91667824  .00019182  00000-0  12206-2 0  9994,2 52854  53.2141 239.0504 0001935  38.0618 116.7518 15.08822680  1302,6917.933000000001,95.439,541.137,538.46,0.0
52854.0,STARLINK-4204,PAYLOAD,2022-10-06 06:00:00,15.08825786,0.0002153,53.2142,237.5557,34.6127,131.7854,0.0014759999999999,0.00023272,0.0,0 STARLINK-4204,1 52854U 22062AA  22279.25001157  .00023272  00000-0  14760-2 0  9995,2 52854  53.2142 237.5557 0002153  34.6127 131.7854 15.08825786 17648,6917.924,95.438,541.278,538.299,0.0
52854.0,STARLINK-4204,PAYLOAD,2022-10-06 14:00:01,15.08858709,0.0001966999999999,53.2143,236.0579,33.2184,144.7772,-0.003062,-0.00048717,0.0,0 STARLINK-4204,1 52854U 22062AA  22279.58334491 -.00048717  00000-0 -30620-2 0  9997,2 52854  53.2143 236.0579 0001967  33.2184 144.7772 15.08858709  1307,6917.823,95.436,541.049,538.327,0.0
52854.0,STARLINK-4204,PAYLOAD,2022-10-06 22:42:55,15.08848756,0.0001867,53.2147,234.4274,35.3967,316.1013,0.00063406,9.82e-05,0.0,0 STARLINK-4204,1 52854U 22062AA  22279.94646991  .00009820  00000-0  63406-3 0  9997,2 52854  53.2147 234.4274 0001867  35.3967 316.1013 15.08848756  1300,6917.854,95.437,541.01,538.427,0.0
52854.0,STARLINK-4204,PAYLOAD,2022-10-07 06:00:00,15.08837396,0.0002082,53.2148,233.0662,31.2092,169.9899,0.00059081,9.127e-05,0.0,0 STARLINK-4204,1 52854U 22062AA  22280.25001157  .00009127  00000-0  59081-3 0  9996,2 52854  53.2148 233.0662 0002082  31.2092 169.9899 15.08837396 17795,6917.888000000001,95.438,541.194,538.313,0.0
52854.0,STARLINK-4204,PAYLOAD,2022-10-07 14:00:01,15.088452800000002,0.0001950999999999,53.215,231.5683,33.773,179.0237,-0.001221,-0.00019671,0.0,0 STARLINK-4204,1 52854U 22062AA  22280.58334491 -.00019671  00000-0 -12210-2 0  9991,2 52854  53.2150 231.5683 0001951  33.7730 179.0237 15.08845280  1303,6917.864000000001,95.437,541.0790000000002,538.38,0.0
52854.0,STARLINK-4204,PAYLOAD,2022-10-07 22:00:00,15.08846956,0.0001966999999999,53.2155,230.0717,39.6197,184.7615,-0.0013407,-0.00021567,0.0,0 STARLINK-4204,1 52854U 22062AA  22280.91667824 -.00021567  00000-0 -13407-2 0  9993,2 52854  53.2155 230.0717 0001967  39.6197 184.7615 15.08846956  1303,6917.859,95.437,541.085,538.363,0.0
52854.0,STARLINK-4204,PAYLOAD,2022-10-08 06:00:00,15.08823254,0.0002191999999999,53.2156,228.5768,36.2996,199.6803,-8.653e-05,-1.665e-05,0.0,0 STARLINK-4204,1 52854U 22062AA  22281.25001157 -.00001665  00000-0 -86530-4 0  9998,2 52854  53.2156 228.5768 0002192  36.2996 199.6803 15.08823254 17940,6917.932,95.439,541.313,538.28,0.0
52854.0,STARLINK-4204,PAYLOAD,2022-10-08 14:00:01,15.08817594,0.0002031,53.2158,227.0789,38.4673,209.0914,-0.00087885,-0.0001424,0.0,0 STARLINK-4204,1 52854U 22062AA  22281.58334491 -.00014240  00000-0 -87885-3 0  9990,2 52854  53.2158 227.0789 0002031  38.4673 209.0914 15.08817594  1309,6917.949000000001,95.439,541.219,538.409,0.0
52854.0,STARLINK-4204,PAYLOAD,2022-10-08 22:00:00,15.08827468,0.0001996999999999,53.2161,225.5825,43.1205,215.9934,0.0012066,0.00018961,0.0,0 STARLINK-4204,1 52854U 22062AA  22281.91667824  .00018961  00000-0  12066-2 0  9996,2 52854  53.2161 225.5825 0001997  43.1205 215.9934 15.08827468  1300,6917.919,95.438,541.165,538.4019999999998,0.0
52854.0,STARLINK-4204,PAYLOAD,2022-10-09 14:00:01,15.08856729,0.0001881,53.2162,222.5898,38.2401,244.0606,-0.0011825,-0.00019067,0.0,0 STARLINK-4204,1 52854U 22062AA  22282.58334491 -.00019067  00000-0 -11825-2 0  9993,2 52854  53.2162 222.5898 0001881  38.2401 244.0606 15.08856729  1304,6917.829000000002,95.436,540.995,538.393,0.0
52854.0,STARLINK-4204,PAYLOAD,2022-10-10 00:00:00,15.08873564,0.000183,53.2162,220.72,38.3341,348.4697,-0.0025009,-0.00039907,0.0,0 STARLINK-4204,1 52854U 22062AA  22283.00001157 -.00039907  00000-0 -25009-2 0  9995,2 52854  53.2162 220.7200 0001830  38.3341 348.4697 15.08873564  1304,6917.778,95.435,540.909,538.377,0.0
52854.0,STARLINK-4204,PAYLOAD,2022-10-10 08:00:01,15.08845506,0.0001992,53.2159,219.2248,35.1844,3.2384,-0.00047187,-7.791e-05,0.0,0 STARLINK-4204,1 52854U 22062AA  22283.33334491 -.00007791  00000-0 -47187-3 0  9999,2 52854  53.2159 219.2248 0001992  35.1844   3.2384 15.08845506 18253,6917.864000000001,95.437,541.107,538.351,0.0
52854.0,STARLINK-4204,PAYLOAD,2022-10-10 14:00:01,15.08887405,0.0001955999999999,53.2167,218.1014,39.5723,277.5462,-0.0127,-0.00197189,0.0,0 STARLINK-4204,1 52854U 22062AA  22283.58334491 -.00197189  00000-0 -12700-1 0  9998,2 52854  53.2167 218.1014 0001956  39.5723 277.5462 15.08887405  1300,6917.735,95.435,540.9540000000002,538.247,0.0
52854.0,STARLINK-4204,PAYLOAD,2022-10-10 22:00:01,15.08942315,0.0001871,53.217,216.6047,41.0962,287.6734,-0.020013,-0.00306363,0.0,0 STARLINK-4204,1 52854U 22062AA  22283.91668981 -.00306363  00000-0 -20013-1 0  9991,2 52854  53.2170 216.6047 0001871  41.0962 287.6734 15.08942315  1308,6917.568,95.431,540.727,538.138,0.0
52854.0,STARLINK-4204,PAYLOAD,2022-10-11 14:00:01,15.08756543,0.0001720999999999,53.2174,213.6129,38.583,313.2753,0.0079112,0.00127616,0.0,0 STARLINK-4204,1 52854U 22062AA  22284.58334491  .00127616  00000-0  79112-2 0  9996,2 52854  53.2174 213.6129 0001721  38.5830 313.2753 15.08756543  1302,6918.135,95.443,541.191,538.81,0.0
52854.0,STARLINK-4204,PAYLOAD,2022-10-11 22:00:00,15.08837561,0.0001713,53.2177,212.117,39.7173,323.6921,-7.199e-05,-1.434e-05,0.0,0 STARLINK-4204,1 52854U 22062AA  22284.91667824 -.00001434  00000-0 -71990-4 0  9991,2 52854  53.2177 212.1170 0001713  39.7173 323.6921 15.08837561 18499,6917.888000000001,95.438,540.938,538.568,0.0
52854.0,STARLINK-4204,PAYLOAD,2022-10-12 14:00:01,15.08835889,0.0001942,53.2175,209.1237,35.968,350.6271,8.3758e-05,1.045e-05,0.0,0 STARLINK-4204,1 52854U 22062AA  22285.58334491  .00001045  00000-0  83758-4 0  9997,2 52854  53.2175 209.1237 0001942  35.9680 350.6271 15.08835889  1303,6917.893,95.438,541.101,538.414,0.0
52854.0,STARLINK-4204,PAYLOAD,2022-10-12 22:00:00,15.08837771,0.0001991,53.2176,207.628,36.5361,1.65,-0.00010964,-2.033e-05,0.0,0 STARLINK-4204,1 52854U 22062AA  22285.91667824 -.00002033  00000-0 -10964-3 0  9991,2 52854  53.2176 207.6280 0001991  36.5361   1.6500 15.08837771  1302,6917.887,95.438,541.13,538.375,0.0
52854.0,STARLINK-4204,PAYLOAD,2022-10-13 06:00:00,15.08828032,0.0002109,53.2159,206.1329,43.7968,5.9847,0.0016422999999999,0.00025938,0.0,0 STARLINK-4204,1 52854U 22062AA  22286.25001157  .00025938  00000-0  16423-2 0  9992,2 52854  53.2159 206.1329 0002109  43.7968   5.9847 15.08828032 18697,6917.917,95.438,541.241,538.323,0.0
52854.0,STARLINK-4204,PAYLOAD,2022-10-13 14:00:01,15.08819105,0.0002053,53.217,204.6347,44.6017,16.7815,0.0014191,0.00022356,0.0,0 STARLINK-4204,1 52854U 22062AA  22286.58334491  .00022356  00000-0  14191-2 0  9999,2 52854  53.2170 204.6347 0002053  44.6017  16.7815 15.08819105  1302,6917.944,95.439,541.23,538.389,0.0
52854.0,STARLINK-4204,PAYLOAD,2022-10-13 20:00:01,15.08837471,0.0002147,53.2175,203.5123,46.187,293.9408,-2.4108e-05,-6.72e-06,0.0,0 STARLINK-4204,1 52854U 22062AA  22286.83335648 -.00000672  00000-0 -24108-4 0  9992,2 52854  53.2175 203.5123 0002147  46.1870 293.9408 15.08837471 18788,6917.888000000001,95.438,541.238,538.268,0.0
52854.0,STARLINK-4204,PAYLOAD,2022-10-13 22:00:00,15.08837693,0.0002186,53.2175,203.1389,45.5261,27.4367,-0.00011113,-2.056e-05,0.0,0 STARLINK-4204,1 52854U 22062AA  22286.91667824 -.00002056  00000-0 -11113-3 0  9994,2 52854  53.2175 203.1389 0002186  45.5261  27.4367 15.08837693  1308,6917.887,95.438,541.265,538.24,0.0
52854.0,STARLINK-4204,PAYLOAD,2022-10-14 14:00:01,15.08783741,0.0001858,53.2172,200.1455,46.8088,49.3677,0.0050473,0.00080838,0.0,0 STARLINK-4204,1 52854U 22062AA  22287.58334491  .00080838  00000-0  50473-2 0  9992,2 52854  53.2172 200.1455 0001858  46.8088  49.3677 15.08783741  1303,6918.052,95.441,541.203,538.632,0.0
52854.0,STARLINK-4204,PAYLOAD,2022-10-14 20:00:01,15.08837343,0.0001905,53.2176,199.0233,49.8205,325.0212,-3.2669e-05,-8.08e-06,0.0,0 STARLINK-4204,1 52854U 22062AA  22287.83334491 -.00000808  00000-0 -32669-4 0  9990,2 52854  53.2176 199.0233 0001905  49.8205 325.0212 15.08837343  1301,6917.889,95.438,541.071,538.436,0.0
